E-ST@R-II               
1 41459U 16025D   22209.73461174  .00010952  00000+0  46267-3 0  9999
2 41459  98.1876  17.9724 0144197 129.0986 232.3127 15.14393631343742
AAUSAT 4                
1 41460U 16025E   22209.48588888  .00015748  00000+0  58090-3 0  9990
2 41460  98.1830  24.2927 0123362 104.5745 256.9201 15.20921725344173
BEESAT-4                
1 41619U 16040W   22209.60170654  .00008392  00000+0  27264-3 0  9991
2 41619  97.2139 259.1520 0008073 339.3040  20.7875 15.32136131327027
RAVAN                   
1 41849U 16067B   22209.84767016  .00001657  00000+0  13487-3 0  9994
2 41849  98.0055 348.0425 0013871 197.1780 162.8976 15.00948278312205
CELTEE 1                
1 41850U 16067C   22209.84623404  .00001474  00000+0  12810-3 0  9994
2 41850  98.0022 342.9230 0008712 187.0753 173.0347 14.98598919311950
OPTICUBE 04             
1 41851U 16067D   22209.31165742  .00001179  00000+0  10546-3 0  9999
2 41851  98.0011 341.3764 0008460 193.4599 166.6398 14.97874165311822
AEROCUBE 8D             
1 41852U 16067E   22209.37102968  .00001467  00000+0  12783-3 0  9992
2 41852  97.9991 341.4743 0009401 195.4193 164.6744 14.98512137311826
AEROCUBE 8C             
1 41853U 16067F   22209.82030817  .00000875  00000+0  78423-4 0  9992
2 41853  97.9989 341.7556 0009264 200.6754 159.4094 14.98485543311884
PROMETHEUS 2-1          
1 41854U 16067G   22209.68930865  .00001688  00000+0  14169-3 0  9998
2 41854  97.9980 342.7738 0011794 208.7674 151.2899 14.99727908311923
PROMETHEUS 2-3          
1 41855U 16067H   22209.81463007  .00001221  00000+0  10389-3 0  9996
2 41855  98.0011 342.9890 0009810 214.5836 145.4749 14.99764328311941
INS-1B                  
1 41954U 17008G   22209.65575181  .00008187  00000+0  26347-3 0  9990
2 41954  97.2551 268.7071 0009179  90.8800 269.3494 15.32440872303050
BGUSAT                  
1 41999U 17008BD  22209.74455766  .00019620  00000+0  44445-3 0  9998
2 41999  97.2789 280.0574 0006496  86.2908 273.9083 15.43123108303006
DIDO-2                  
1 42000U 17008BE  22209.85587236  .00004192  00000+0  15112-3 0  9999
2 42000  97.2541 268.1102 0009097 108.3470 251.8761 15.29039932302394
PEASSS                  
1 42015U 17008BV  22209.41636408  .00006858  00000+0  22123-3 0  9994
2 42015  97.2611 271.7219 0006985 105.5348 254.6666 15.32443527303044
AL-FARABI 1             
1 42016U 17008BW  22209.74712910  .00009395  00000+0  27305-3 0  9990
2 42016  97.2676 275.2719 0006225 101.0270 259.1675 15.35658660303388
NAYIF-1 (EO-88)         
1 42017U 17008BX  22209.75831363  .00009504  00000+0  27485-3 0  9997
2 42017  97.2669 275.2994 0006523  99.8016 260.3965 15.35809963303413
UCLSAT                  
1 42765U 17036A   22209.65265304  .00007282  00000+0  24822-3 0  9996
2 42765  97.1943 251.0427 0009765 166.3574 193.7933 15.30614252284153
LITUANICASAT-2          
1 42768U 17036D   22209.88754005  .00016366  00000+0  44663-3 0  9993
2 42768  97.2026 254.3932 0011504 150.1210 210.0694 15.37437844283612
AALTO-1                 
1 42775U 17036L   22209.87920005  .00003617  00000+0  14267-3 0  9997
2 42775  97.1947 246.0823 0012740 171.4849 188.6609 15.26103878283098
URSA MAIOR              
1 42776U 17036M   22209.77881833  .00004362  00000+0  16838-3 0  9996
2 42776  97.1960 246.7558 0012423 170.3436 189.8044 15.26714729283116
COMPASS 2               
1 42777U 17036N   22209.87222998  .00010840  00000+0  33320-3 0  9992
2 42777  97.2015 253.5426 0010443 154.2360 205.9406 15.33809171283493
DIAMOND RED             
1 42783U 17036U   22209.84569570  .00004800  00000+0  17774-3 0  9990
2 42783  97.1966 249.2277 0010670 173.0502 187.0888 15.28068060283266
PEGASUS                 
1 42784U 17036V   22209.66500982  .00006675  00000+0  23448-3 0  9990
2 42784  97.1961 250.2756 0010436 170.2382 189.9064 15.29658404283312
DIAMOND GREEN           
1 42785U 17036W   22209.38675645  .00005507  00000+0  20390-3 0  9995
2 42785  97.1969 248.8483 0010446 175.4719 184.6617 15.28008541283184
DIAMOND BLUE            
1 42786U 17036X   22209.84428913  .00005001  00000+0  18532-3 0  9995
2 42786  97.1969 249.2822 0010509 174.6293 185.5062 15.28025571283338
NUDTSAT                 
1 42787U 17036Y   22209.90756998  .00013972  00000+0  41234-3 0  9991
2 42787  97.1999 254.9290 0009789 158.2780 201.8867 15.35043490283457
SUCHAI                  
1 42788U 17036Z   22209.67650992  .00008110  00000+0  26780-3 0  9990
2 42788  97.1967 252.0335 0009941 164.2647 195.8906 15.31603235283496
SKCUBE                  
1 42789U 17036AA  22209.62908357  .00007114  00000+0  24143-3 0  9991
2 42789  97.1966 251.4067 0009946 165.8469 194.3053 15.30760779283375
VZLUSAT-1               
1 42790U 17036AB  22209.65841784  .00011726  00000+0  34864-3 0  9991
2 42790  97.1990 254.6460 0009164 155.9158 204.2516 15.34856331283563
ROBUSTA-1B              
1 42792U 17036AD  22209.63567588  .00007709  00000+0  25682-3 0  9992
2 42792  97.1965 252.0062 0009533 165.1525 194.9999 15.31338161283426
CICERO 6                
1 42793U 17036AE  22209.80339610  .00004476  00000+0  16665-3 0  9994
2 42793  97.1946 249.7204 0009208 171.4130 188.7269 15.27933209283383
CORVUS BC2              
1 42846U 17042X   22209.83643506  .00000454  00000+0  48674-4 0  9993
2 42846  97.4189  64.7971 0008439 209.9474 150.1265 14.92984957274457
CORVUS BC1              
1 42847U 17042Y   22209.84712196  .00000301  00000+0  33911-4 0  9996
2 42847  97.4191  65.1204 0008131 208.2217 151.8564 14.93087399274467
MIRATA                  
1 43015U 17073C   22209.95233972  .00005139  00000+0  37020-3 0  9998
2 43015  97.6699 103.7183 0238541  44.9485 317.0770 14.84475615253427
MAKERSAT 0              
1 43016U 17073D   22209.69442556  .00003857  00000+0  28529-3 0  9999
2 43016  97.6719 102.9548 0245905  50.3977 311.8668 14.82640991253300
AEROCUBE 7B (OCSD B)    
1 43042U 17071F   22209.40616364  .00686645  25521-3  79021-3 0  9999
2 43042  51.6240 187.0508 0003844  45.0568 315.0757 16.08361145262215
AEROCUBE 7C (OCSD C)    
1 43043U 17071G   22209.94556105  .00370430  67557-4  80107-3 0  9990
2 43043  51.6228 187.6515 0005310  47.8325 312.3135 15.97827530262220
ASGARDIA 1              
1 43049U 17071N   22209.78311419  .00134111  00000+0  58738-3 0  9999
2 43049  51.6262 193.5925 0004847  43.3012 316.8371 15.83720911262134
PROPCUBE 2 (FAUNA)      
1 43052U 17071R   22209.39901574  .02262788  11909-4  95100-3 0  9990
2 43052  51.6111 180.2403 0001449 244.3844 115.7025 16.22257076262263
CORVUS BC3              
1 43118U 18004H   22209.76781477  .00003620  00000+0  13576-3 0  9997
2 43118  97.3614 281.9509 0008353 206.8000 153.2809 15.27853602252521
MICROMAS-2A             
1 43131U 18004W   22209.75643340  .00014162  00000+0  38127-3 0  9999
2 43131  97.3749 289.1767 0006138 186.5636 173.5530 15.37946465252920
SPACEBEE-4              
1 43139U 18004AE  22209.85259848  .00033321  00000+0  63787-3 0  9992
2 43139  97.3844 294.7939 0005427 178.5866 181.5400 15.47972305253247
SPACEBEE-3              
1 43140U 18004AF  22209.79912923  .00091066  00000+0  10083-2 0  9997
2 43140  97.3868 299.2632 0004700 193.2122 166.9014 15.62686295253501
SPACEBEE-2              
1 43141U 18004AG  22209.79603257  .00171442  00000+0  12797-2 0  9996
2 43141  97.3868 301.2085 0005274 213.6352 146.4577 15.72201602253612
SPACEBEE-1              
1 43142U 18004AH  22209.89045318  .01311938  99898-3  20702-2 0  9995
2 43142  97.3751 303.9707 0013906 266.8553  93.1136 16.03919206253786
CICERO 7                
1 43143U 18004AJ  22209.75095822  .00009157  00000+0  27464-3 0  9998
2 43143  97.3730 288.5110 0005219 193.4483 166.6622 15.34683474252902
GOMX-4B                 
1 43196U 18015E   22209.69264458  .00003127  00000+0  11884-3 0  9994
2 43196  97.5386 349.4801 0015470 271.9068  88.0399 15.27474741249455
GOMX-4A                 
1 43197U 18015F   22209.95366655  .00004407  00000+0  15749-3 0  9992
2 43197  97.5373 350.6533 0015080 269.7448 185.3747 15.29272031249562
AEROCUBE 12A            
1 43556U 18046C   22209.84102353  .00012930  00000+0  32081-3 0  9994
2 43556  51.6379 341.9036 0006517 188.2447 171.8432 15.40686633225697
AEROCUBE 12B            
1 43557U 18046D   22209.96346603  .00008831  00000+0  23902-3 0  9993
2 43557  51.6397 346.3969 0006789 182.2363 177.8591 15.38454277225599
SURFSAT                 
1 43614U 18070B   22209.85015285  .00026154  00000+0  34610-3 0  9997
2 43614  93.0287 116.3650 0009316 190.5203 169.5868 15.58184052217507
CP7 (DAVE)              
1 43615U 18070C   22209.70279672  .00023846  00000+0  33463-3 0  9994
2 43615  93.0270 116.1140 0009353 196.3112 163.7852 15.56613856217445
ELFIN-B                 
1 43616U 18070D   22209.84628240  .00102738  00000+0  65156-3 0  9991
2 43616  93.0166 117.7190 0010188 162.1607 198.0027 15.76159263217859
ELFIN-A                 
1 43617U 18070E   22209.83402197  .00131815  00000+0  69431-3 0  9990
2 43617  93.0231 119.1830 0010620 154.3427 205.8378 15.80247048217911
CUBEBEL-1 (BSUSAT-1)    
1 43666U 18083E   22209.90852234  .00005940  00000+0  24859-3 0  9991
2 43666  97.4178 238.1331 0013167 180.1167 301.9002 15.23870471207794
CICERO 10               
1 43690U 18088A   22209.70316544  .00003824  00000+0  14967-3 0  9998
2 43690  85.0369 288.9469 0012972   4.9166 355.2203 15.25383402206021
IRVINE01                
1 43693U 18088D   22209.68590242  .00022204  00000+0  54528-3 0  9997
2 43693  85.0284 282.8364 0009085 315.7427  44.3098 15.40498928206565
PROXIMA I               
1 43694U 18088E   22209.68464163  .00004507  00000+0  16791-3 0  9996
2 43694  85.0301 285.5475 0015215 327.4447  32.5858 15.27043307206265
PROXIMA II              
1 43696U 18088G   22209.68540080  .00004488  00000+0  16733-3 0  9995
2 43696  85.0303 285.5669 0015264 327.4355  32.5946 15.27018995206258
